ONEWEB-0136             
1 47282U 20100AA  26001.76583165 -.00000260  00000+0 -75753-3 0  9995
2 47282  87.8924  23.6974 0001359  83.5509 276.5774 13.12441455242839
ONEWEB-0137             
1 47283U 20100AB  26001.57099935  .00000263  00000+0  69633-3 0  9993
2 47283  87.8927  23.7414 0001783  94.5514 265.5818 13.12443683242711
ONEWEB-0138             
1 47284U 20100AC  26002.00639828 -.00000293  00000+0 -85089-3 0  9992
2 47284  87.8928  23.6639 0001558  90.1702 269.9605 13.12443430242859
ONEWEB-0139             
1 47285U 20100AD  26001.97096247  .00000485  00000+0  13131-2 0  9999
2 47285  87.8924  23.6600 0001692  94.1669 265.9653 13.12441899242923
ONEWEB-0140             
1 47286U 20100AE  26002.00133168 -.00000250  00000+0 -72969-3 0  9996
2 47286  87.8926  23.6413 0001606  89.9042 270.2270 13.12443406242896
ONEWEB-0141             
1 47287U 20100AF  26001.97068121  .00000493  00000+0  13352-2 0  9995
2 47287  87.8921  23.6554 0001790 101.2334 258.8996 13.12445002242873
ONEWEB-0142             
1 47288U 20100AG  26001.57792763  .00000465  00000+0  12580-2 0  9999
2 47288  87.8924  23.7570 0001464 101.5189 258.6104 13.12444861242810
ONEWEB-0143             
1 47289U 20100AH  26001.96913395  .00000481  00000+0  13019-2 0  9995
2 47289  87.8924  23.6751 0001744  93.7142 266.4186 13.12440668242844
